{
  "type": "FeatureCollection",
  "features": [
    {
      "type": "Feature",
      "properties": {
        "norad_id": 66946,
        "name": "STARLINK-36115",
        "group": "last-30-days",
        "lat": 51.018745823859845,
        "lon": 77.88412836142281,
        "alt_km": 335.80463663722094,
        "timestamp": "2025-12-20T18:51:30.448667+00:00",
        "meta_object_name": "STARLINK-36115",
        "meta_object_id": "2025-286X",
        "meta_epoch": "2025-12-20T14:00:03.000384",
        "meta_mean_motion": 15.76006123,
        "meta_eccentricity": 0.00010348,
        "meta_inclination": 53.1558,
        "meta_ra_of_asc_node": 10.9797,
        "meta_arg_of_pericenter": 74.5186,
        "meta_mean_anomaly": 293.0235,
        "meta_ephemeris_type": 0,
        "meta_classification_type": "U",
        "meta_norad_cat_id": 66946,
        "meta_element_set_no": 999,
        "meta_rev_at_epoch": 325,
        "meta_bstar": -0.0094515438,
        "meta_mean_motion_dot": -0.01338121,
        "meta_mean_motion_ddot": 0,
        "tle_line1": "1 66946U 25286X   25354.58336806 -.01338121  00000+0 -94515-2 0  9998",
        "tle_line2": "2 66946  53.1558  10.9797 0001034  74.5186 293.0235 15.76006123  3257"
      },
      "geometry": {
        "type": "Point",
        "coordinates": [
          77.88412836142281,
          51.018745823859845
        ]
      }
    },
    {
      "type": "Feature",
      "properties": {
        "norad_id": 66947,
        "name": "STARLINK-36089",
        "group": "last-30-days",
        "lat": 52.060710619609424,
        "lon": 84.09016186866563,
        "alt_km": 336.33870726753685,
        "timestamp": "2025-12-20T18:51:30.448677+00:00",
        "meta_object_name": "STARLINK-36089",
        "meta_object_id": "2025-286Y",
        "meta_epoch": "2025-12-20T14:00:03.000384",
        "meta_mean_motion": 15.75924582,
        "meta_eccentricity": 6.003e-05,
        "meta_inclination": 53.1556,
        "meta_ra_of_asc_node": 10.9708,
        "meta_arg_of_pericenter": 79.6518,
        "meta_mean_anomaly": 291.9662,
        "meta_ephemeris_type": 0,
        "meta_classification_type": "U",
        "meta_norad_cat_id": 66947,
        "meta_element_set_no": 999,
        "meta_rev_at_epoch": 325,
        "meta_bstar": -0.010357598,
        "meta_mean_motion_dot": -0.01446555,
        "meta_mean_motion_ddot": 0,
        "tle_line1": "1 66947U 25286Y   25354.58336806 -.01446555  00000+0 -10358-1 0  9992",
        "tle_line2": "2 66947  53.1556  10.9708 0000600  79.6518 291.9662 15.75924582  3259"
      },
      "geometry": {
        "type": "Point",
        "coordinates": [
          84.09016186866563,
          52.060710619609424
        ]
      }
    },
    {
      "type": "Feature",
      "properties": {
        "norad_id": 66948,
        "name": "STARLINK-36116",
        "group": "last-30-days",
        "lat": 51.59120146809472,
        "lon": 81.01135867939871,
        "alt_km": 336.35488767565585,
        "timestamp": "2025-12-20T18:51:30.448686+00:00",
        "meta_object_name": "STARLINK-36116",
        "meta_object_id": "2025-286Z",
        "meta_epoch": "2025-12-20T14:00:03.000384",
        "meta_mean_motion": 15.75944498,
        "meta_eccentricity": 5.362e-05,
        "meta_inclination": 53.156,
        "meta_ra_of_asc_node": 10.9746,
        "meta_arg_of_pericenter": 75.488,
        "meta_mean_anomaly": 294.1518,
        "meta_ephemeris_type": 0,
        "meta_classification_type": "U",
        "meta_norad_cat_id": 66948,
        "meta_element_set_no": 999,
        "meta_rev_at_epoch": 325,
        "meta_bstar": -0.010151732,
        "meta_mean_motion_dot": -0.01422183,
        "meta_mean_motion_ddot": 0,
        "tle_line1": "1 66948U 25286Z   25354.58336806 -.01422183  00000+0 -10152-1 0  9996",
        "tle_line2": "2 66948  53.1560  10.9746 0000536  75.4880 294.1518 15.75944498  3254"
      },
      "geometry": {
        "type": "Point",
        "coordinates": [
          81.01135867939871,
          51.59120146809472
        ]
      }
    },
    {
      "type": "Feature",
      "properties": {
        "norad_id": 66949,
        "name": "STARLINK-36096",
        "group": "last-30-days",
        "lat": 52.450240282516305,
        "lon": 87.23818361675869,
        "alt_km": 336.23602916638174,
        "timestamp": "2025-12-20T18:51:30.448698+00:00",
        "meta_object_name": "STARLINK-36096",
        "meta_object_id": "2025-286AA",
        "meta_epoch": "2025-12-20T14:00:03.000384",
        "meta_mean_motion": 15.75897149,
        "meta_eccentricity": 8.289e-05,
        "meta_inclination": 53.1562,
        "meta_ra_of_asc_node": 10.9669,
        "meta_arg_of_pericenter": 80.5638,
        "meta_mean_anomaly": 293.0429,
        "meta_ephemeris_type": 0,
        "meta_classification_type": "U",
        "meta_norad_cat_id": 66949,
        "meta_element_set_no": 999,
        "meta_rev_at_epoch": 325,
        "meta_bstar": -0.010539594,
        "meta_mean_motion_dot": -0.01467504,
        "meta_mean_motion_ddot": 0,
        "tle_line1": "1 66949U 25286AA  25354.58336806 -.01467504  00000+0 -10540-1 0  9994",
        "tle_line2": "2 66949  53.1562  10.9669 0000828  80.5638 293.0429 15.75897149  3252"
      },
      "geometry": {
        "type": "Point",
        "coordinates": [
          87.23818361675869,
          52.450240282516305
        ]
      }
    },
    {
      "type": "Feature",
      "properties": {
        "norad_id": 66950,
        "name": "STARLINK-36111",
        "group": "last-30-days",
        "lat": 52.97180846447693,
        "lon": 93.70149179431463,
        "alt_km": 336.324835702022,
        "timestamp": "2025-12-20T18:51:30.448710+00:00",
        "meta_object_name": "STARLINK-36111",
        "meta_object_id": "2025-286AB",
        "meta_epoch": "2025-12-20T14:00:03.000384",
        "meta_mean_motion": 15.75844263,
        "meta_eccentricity": 0.00010296,
        "meta_inclination": 53.156,
        "meta_ra_of_asc_node": 10.9586,
        "meta_arg_of_pericenter": 66.7349,
        "meta_mean_anomaly": 310.8697,
        "meta_ephemeris_type": 0,
        "meta_classification_type": "U",
        "meta_norad_cat_id": 66950,
        "meta_element_set_no": 999,
        "meta_rev_at_epoch": 325,
        "meta_bstar": -0.01127066,
        "meta_mean_motion_dot": -0.01553317,
        "meta_mean_motion_ddot": 0,
        "tle_line1": "1 66950U 25286AB  25354.58336806 -.01553317  00000+0 -11271-1 0  9996",
        "tle_line2": "2 66950  53.1560  10.9586 0001029  66.7349 310.8697 15.75844263  3253"
      },
      "geometry": {
        "type": "Point",
        "coordinates": [
          93.70149179431463,
          52.97180846447693
        ]
      }
    },
    {
      "type": "Feature",
      "properties": {
        "norad_id": 66951,
        "name": "STARLINK-35999",
        "group": "last-30-days",
        "lat": 53.10042529209538,
        "lon": 97.04617120350343,
        "alt_km": 336.3158532012603,
        "timestamp": "2025-12-20T18:51:30.448720+00:00",
        "meta_object_name": "STARLINK-35999",
        "meta_object_id": "2025-286AC",
        "meta_epoch": "2025-12-20T14:00:03.000384",
        "meta_mean_motion": 15.7593174,
        "meta_eccentricity": 0.00010308,
        "meta_inclination": 53.1558,
        "meta_ra_of_asc_node": 10.9543,
        "meta_arg_of_pericenter": 79.9579,
        "meta_mean_anomaly": 299.6383,
        "meta_ephemeris_type": 0,
        "meta_classification_type": "U",
        "meta_norad_cat_id": 66951,
        "meta_element_set_no": 999,
        "meta_rev_at_epoch": 325,
        "meta_bstar": -0.012947366,
        "meta_mean_motion_dot": -0.01795863,
        "meta_mean_motion_ddot": 0,
        "tle_line1": "1 66951U 25286AC  25354.58336806 -.01795863  00000+0 -12947-1 0  9992",
        "tle_line2": "2 66951  53.1558  10.9543 0001030  79.9579 299.6383 15.75931740  3250"
      },
      "geometry": {
        "type": "Point",
        "coordinates": [
          97.04617120350343,
          53.10042529209538
        ]
      }
    },
    {
      "type": "Feature",
      "properties": {
        "norad_id": 66952,
        "name": "STARLINK-36122",
        "group": "last-30-days",
        "lat": 52.756140343898615,
        "lon": 90.46238324056634,
        "alt_km": 336.31822376856235,
        "timestamp": "2025-12-20T18:51:30.448730+00:00",
        "meta_object_name": "STARLINK-36122",
        "meta_object_id": "2025-286AD",
        "meta_epoch": "2025-12-20T14:00:03.000384",
        "meta_mean_motion": 15.75866988,
        "meta_eccentricity": 8.95e-05,
        "meta_inclination": 53.1562,
        "meta_ra_of_asc_node": 10.9627,
        "meta_arg_of_pericenter": 65.3593,
        "meta_mean_anomaly": 310.255,
        "meta_ephemeris_type": 0,
        "meta_classification_type": "U",
        "meta_norad_cat_id": 66952,
        "meta_element_set_no": 999,
        "meta_rev_at_epoch": 325,
        "meta_bstar": -0.010915877,
        "meta_mean_motion_dot": -0.01511712,
        "meta_mean_motion_ddot": 0,
        "tle_line1": "1 66952U 25286AD  25354.58336806 -.01511712  00000+0 -10916-1 0  9996",
        "tle_line2": "2 66952  53.1562  10.9627 0000895  65.3593 310.2550 15.75866988  3259"
      },
      "geometry": {
        "type": "Point",
        "coordinates": [
          90.46238324056634,
          52.756140343898615
        ]
      }
    }
  ]
}